{"type": "FeatureCollection", "features": [ {"type": "Feature", "properties": {"norad_id": 29892, "name": "FENGYUN 1C DEB", "group": "fengyun-1c-debris", "lat": 52.69832867973282, "lon": -30.584435509844003, "alt_km": 910.3310301669535, "timestamp": "2025-12-15T10:55:21.414866+00:00", "meta": {"OBJECT_NAME": "FENGYUN 1C DEB", "OBJECT_ID": "1999-025GN", "EPOCH": "2025-12-14T21:38:27.174624", "MEAN_MOTION": 14.32232304, "ECCENTRICITY": 0.01914294, "INCLINATION": 99.1805, "RA_OF_ASC_NODE": 136.5741, "ARG_OF_PERICENTER": 291.0633, "MEAN_ANOMALY": 224.0463, "EPHEMERIS_TYPE": 0, "CLASSIFICATION_TYPE": "U", "NORAD_CAT_ID": 29892, "ELEMENT_SET_NO": 999, "REV_AT_EPOCH": 96680, "BSTAR": 0.0021451261, "MEAN_MOTION_DOT": 7.032e-05, "MEAN_MOTION_DDOT": 0}, "tle": {"line1": "1 29892U 99025GN  25348.90170341  .00007032  00000+0  21451-2 0  9998", "line2": "2 29892  99.1805 136.5741 0191429 291.0633 224.0463 14.32232304966805"}}, "geometry": {"type": "Point", "coordinates": [-30.584435509844003, 52.69832867973282]}}, {"type": "Feature", "properties": {"norad_id": 29893, "name": "FENGYUN 1C DEB", "group": "fengyun-1c-debris", "lat": 80.73674544493038, "lon": -27.40996323435643, "alt_km": 879.3685219533827, "timestamp": "2025-12-15T10:55:21.414876+00:00", "meta": {"OBJECT_NAME": "FENGYUN 1C DEB", "OBJECT_ID": "1999-025GP", "EPOCH": "2025-12-14T19:24:20.968128", "MEAN_MOTION": 13.79462524, "ECCENTRICITY": 0.01737222, "INCLINATION": 98.5535, "RA_OF_ASC_NODE": 84.6746, "ARG_OF_PERICENTER": 147.8419, "MEAN_ANOMALY": 338.3006, "EPHEMERIS_TYPE": 0, "CLASSIFICATION_TYPE": "U", "NORAD_CAT_ID": 29893, "ELEMENT_SET_NO": 999, "REV_AT_EPOCH": 95168, "BSTAR": 0.00023583846, "MEAN_MOTION_DOT": 2.35e-06, "MEAN_MOTION_DDOT": 0}, "tle": {"line1": "1 29893U 99025GP  25348.80857602  .00000235  00000+0  23584-3 0  9998", "line2": "2 29893  98.5535  84.6746 0173722 147.8419 338.3006 13.79462524951684"}}, "geometry": {"type": "Point", "coordinates": [-27.40996323435643, 80.73674544493038]}}, {"type": "Feature", "properties": {"norad_id": 29894, "name": "FENGYUN 1C DEB", "group": "fengyun-1c-debris", "lat": 39.07416106617288, "lon": -128.4164247278907, "alt_km": 981.6959626651906, "timestamp": "2025-12-15T10:55:21.414886+00:00", "meta": {"OBJECT_NAME": "FENGYUN 1C DEB", "OBJECT_ID": "1999-025GQ", "EPOCH": "2025-12-14T03:05:35.088576", "MEAN_MOTION": 13.80974378, "ECCENTRICITY": 0.01684207, "INCLINATION": 99.4856, "RA_OF_ASC_NODE": 42.4502, "ARG_OF_PERICENTER": 41.3891, "MEAN_ANOMALY": 347.0406, "EPHEMERIS_TYPE": 0, "CLASSIFICATION_TYPE": "U", "NORAD_CAT_ID": 29894, "ELEMENT_SET_NO": 999, "REV_AT_EPOCH": 95096, "BSTAR": 0.00062937521, "MEAN_MOTION_DOT": 6.95e-06, "MEAN_MOTION_DDOT": 0}, "tle": {"line1": "1 29894U 99025GQ  25348.12887834  .00000695  00000+0  62938-3 0  9990", "line2": "2 29894  99.4856  42.4502 0168420  41.3891 347.0406 13.80974378950962"}}, "geometry": {"type": "Point", "coordinates": [-128.4164247278907, 39.07416106617288]}}, {"type": "Feature", "properties": {"norad_id": 29895, "name": "FENGYUN 1C DEB", "group": "fengyun-1c-debris", "lat": 33.80104944555793, "lon": -75.18763028615359, "alt_km": 1075.8818146552567, "timestamp": "2025-12-15T10:55:21.414896+00:00", "meta": {"OBJECT_NAME": "FENGYUN 1C DEB", "OBJECT_ID": "1999-025GR", "EPOCH": "2025-12-14T21:09:00.288576", "MEAN_MOTION": 14.08258937, "ECCENTRICITY": 0.02993282, "INCLINATION": 99.8843, "RA_OF_ASC_NODE": 97.4802, "ARG_OF_PERICENTER": 337.8556, "MEAN_ANOMALY": 139.2843, "EPHEMERIS_TYPE": 0, "CLASSIFICATION_TYPE": "U", "NORAD_CAT_ID": 29895, "ELEMENT_SET_NO": 999, "REV_AT_EPOCH": 95554, "BSTAR": 0.0014444654, "MEAN_MOTION_DOT": 3.669e-05, "MEAN_MOTION_DDOT": 0}, "tle": {"line1": "1 29895U 99025GR  25348.88125334  .00003669  00000+0  14445-2 0  9997", "line2": "2 29895  99.8843  97.4802 0299328 337.8556 139.2843 14.08258937955541"}}, "geometry": {"type": "Point", "coordinates": [-75.18763028615359, 33.80104944555793]}}, {"type": "Feature", "properties": {"norad_id": 29896, "name": "FENGYUN 1C DEB", "group": "fengyun-1c-debris", "lat": 23.56116128307622, "lon": 65.26104707813316, "alt_km": 926.5645003338132, "timestamp": "2025-12-15T10:55:21.414906+00:00", "meta": {"OBJECT_NAME": "FENGYUN 1C DEB", "OBJECT_ID": "1999-025GS", "EPOCH": "2025-12-14T15:08:08.746656", "MEAN_MOTION": 13.65369463, "ECCENTRICITY": 0.02397673, "INCLINATION": 99.4223, "RA_OF_ASC_NODE": 240.3072, "ARG_OF_PERICENTER": 97.0562, "MEAN_ANOMALY": 326.2215, "EPHEMERIS_TYPE": 0, "CLASSIFICATION_TYPE": "U", "NORAD_CAT_ID": 29896, "ELEMENT_SET_NO": 999, "REV_AT_EPOCH": 94068, "BSTAR": 0.0006899891, "MEAN_MOTION_DOT": 6.42e-06, "MEAN_MOTION_DDOT": 0}, "tle": {"line1": "1 29896U 99025GS  25348.63065679  .00000642  00000+0  68999-3 0  9998", "line2": "2 29896  99.4223 240.3072 0239767  97.0562 326.2215 13.65369463940680"}}, "geometry": {"type": "Point", "coordinates": [65.26104707813316, 23.56116128307622]}}, {"type": "Feature", "properties": {"norad_id": 29897, "name": "FENGYUN 1C DEB", "group": "fengyun-1c-debris", "lat": -8.947800958757648, "lon": -145.232486866408, "alt_km": 1217.2896615319241, "timestamp": "2025-12-15T10:55:21.414916+00:00", "meta": {"OBJECT_NAME": "FENGYUN 1C DEB", "OBJECT_ID": "1999-025GT", "EPOCH": "2025-12-14T13:53:09.885696", "MEAN_MOTION": 13.57189629, "ECCENTRICITY": 0.0296543, "INCLINATION": 98.6296, "RA_OF_ASC_NODE": 212.627, "ARG_OF_PERICENTER": 133.9392, "MEAN_ANOMALY": 259.0078, "EPHEMERIS_TYPE": 0, "CLASSIFICATION_TYPE": "U", "NORAD_CAT_ID": 29897, "ELEMENT_SET_NO": 999, "REV_AT_EPOCH": 92965, "BSTAR": 0.0020460885, "MEAN_MOTION_DOT": 1.907e-05, "MEAN_MOTION_DDOT": 0}, "tle": {"line1": "1 29897U 99025GT  25348.57858664  .00001907  00000+0  20461-2 0  9992", "line2": "2 29897  98.6296 212.6270 0296543 133.9392 259.0078 13.57189629929659"}}, "geometry": {"type": "Point", "coordinates": [-145.232486866408, -8.947800958757648]}}, {"type": "Feature", "properties": {"norad_id": 29898, "name": "FENGYUN 1C DEB", "group": "fengyun-1c-debris", "lat": 14.548575253675024, "lon": 163.5714840627325, "alt_km": 696.4172846328693, "timestamp": "2025-12-15T10:55:21.414927+00:00", "meta": {"OBJECT_NAME": "FENGYUN 1C DEB", "OBJECT_ID": "1999-025GU", "EPOCH": "2025-12-14T13:42:21.202272", "MEAN_MOTION": 13.70321836, "ECCENTRICITY": 0.04271325, "INCLINATION": 98.223, "RA_OF_ASC_NODE": 340.6619, "ARG_OF_PERICENTER": 184.352, "MEAN_ANOMALY": 303.5199, "EPHEMERIS_TYPE": 0, "CLASSIFICATION_TYPE": "U", "NORAD_CAT_ID": 29898, "ELEMENT_SET_NO": 999, "REV_AT_EPOCH": 93186, "BSTAR": 0.0016485637, "MEAN_MOTION_DOT": 2.745e-05, "MEAN_MOTION_DDOT": 0}, "tle": {"line1": "1 29898U 99025GU  25348.57107873  .00002745  00000+0  16486-2 0  9995", "line2": "2 29898  98.2230 340.6619 0427132 184.3520 303.5199 13.70321836931864"}}, "geometry": {"type": "Point", "coordinates": [163.5714840627325, 14.548575253675024]}}, {"type": "Feature", "properties": {"norad_id": 29899, "name": "FENGYUN 1C DEB", "group": "fengyun-1c-debris", "lat": -69.39968414200024, "lon": -59.35382627276055, "alt_km": 1390.9460506400937, "timestamp": "2025-12-15T10:55:21.414937+00:00", "meta": {"OBJECT_NAME": "FENGYUN 1C DEB", "OBJECT_ID": "1999-025GV", "EPOCH": "2025-12-14T21:07:21.476352", "MEAN_MOTION": 13.37493045, "ECCENTRICITY": 0.03535638, "INCLINATION": 98.6618, "RA_OF_ASC_NODE": 144.0795, "ARG_OF_PERICENTER": 73.6093, "MEAN_ANOMALY": 290.3595, "EPHEMERIS_TYPE": 0, "CLASSIFICATION_TYPE": "U", "NORAD_CAT_ID": 29899, "ELEMENT_SET_NO": 999, "REV_AT_EPOCH": 92113, "BSTAR": 0.00021224516, "MEAN_MOTION_DOT": 1.27e-06, "MEAN_MOTION_DDOT": 0}, "tle": {"line1": "1 29899U 99025GV  25348.88010968  .00000127  00000+0  21225-3 0  9998", "line2": "2 29899  98.6618 144.0795 0353563  73.6093 290.3595 13.37493045921138"}}, "geometry": {"type": "Point", "coordinates": [-59.35382627276055, -69.39968414200024]}}, {"type": "Feature", "properties": {"norad_id": 29901, "name": "FENGYUN 1C DEB", "group": "fengyun-1c-debris", "lat": 42.35632708134236, "lon": 151.8238757767658, "alt_km": 1284.8340767016252, "timestamp": "2025-12-15T10:55:21.414947+00:00", "meta": {"OBJECT_NAME": "FENGYUN 1C DEB", "OBJECT_ID": "1999-025GX", "EPOCH": "2025-12-14T11:39:33.875136", "MEAN_MOTION": 13.33254869, "ECCENTRICITY": 0.03791637, "INCLINATION": 98.7445, "RA_OF_ASC_NODE": 159.0612, "ARG_OF_PERICENTER": 280.9569, "MEAN_ANOMALY": 148.5017, "EPHEMERIS_TYPE": 0, "CLASSIFICATION_TYPE": "U", "NORAD_CAT_ID": 29901, "ELEMENT_SET_NO": 999, "REV_AT_EPOCH": 91942, "BSTAR": 0.00052158654, "MEAN_MOTION_DOT": 3.45e-06, "MEAN_MOTION_DDOT": 0}, "tle": {"line1": "1 29901U 99025GX  25348.48580874  .00000345  00000+0  52159-3 0  9998", "line2": "2 29901  98.7445 159.0612 0379163 280.9569 148.5017 13.33254869919427"}}, "geometry": {"type": "Point", "coordinates": [151.8238757767658, 42.35632708134236]}}, {"type": "Feature", "properties": {"norad_id": 29904, "name": "FENGYUN 1C DEB", "group": "fengyun-1c-debris", "lat": -73.40354131189225, "lon": 175.20574251342555, "alt_km": 663.2442978142208, "timestamp": "2025-12-15T10:55:21.414957+00:00", "meta": {"OBJECT_NAME": "FENGYUN 1C DEB", "OBJECT_ID": "1999-025HA", "EPOCH": "2025-12-14T15:26:14.564832", "MEAN_MOTION": 14.44488797, "ECCENTRICITY": 0.02076766, "INCLINATION": 99.0418, "RA_OF_ASC_NODE": 26.6364, "ARG_OF_PERICENTER": 312.998, "MEAN_ANOMALY": 45.3965, "EPHEMERIS_TYPE": 0, "CLASSIFICATION_TYPE": "U", "NORAD_CAT_ID": 29904, "ELEMENT_SET_NO": 999, "REV_AT_EPOCH": 99091, "BSTAR": 0.00045572585, "MEAN_MOTION_DOT": 1.987e-05, "MEAN_MOTION_DDOT": 0}, "tle": {"line1": "1 29904U 99025HA  25348.64322413  .00001987  00000+0  45573-3 0  9997", "line2": "2 29904  99.0418  26.6364 0207676 312.9980  45.3965 14.44488797990910"}}, "geometry": {"type": "Point", "coordinates": [175.20574251342555, -73.40354131189225]}}]}